[{"OBJECT_NAME":"STARLINK-31745","OBJECT_ID":"2024-136A","EPOCH":"2026-03-01T10:01:48.277632","MEAN_MOTION":15.30198835,"ECCENTRICITY":0.0001229,"INCLINATION":53.16,"RA_OF_ASC_NODE":114.4079,"ARG_OF_PERICENTER":76.7314,"MEAN_ANOMALY":283.3824,"EPHEMERIS_TYPE":0,"CLASSIFICATION_TYPE":"U","NORAD_CAT_ID":60329,"ELEMENT_SET_NO":999,"REV_AT_EPOCH":8960,"BSTAR":0.0001575,"MEAN_MOTION_DOT":4.308e-5,"MEAN_MOTION_DDOT":0},{"OBJECT_NAME":"STARLINK-32153","OBJECT_ID":"2024-136B","EPOCH":"2026-03-01T10:00:16.938144","MEAN_MOTION":15.30192097,"ECCENTRICITY":0.000119,"INCLINATION":53.16,"RA_OF_ASC_NODE":114.4044,"ARG_OF_PERICENTER":66.0592,"MEAN_ANOMALY":294.0533,"EPHEMERIS_TYPE":0,"CLASSIFICATION_TYPE":"U","NORAD_CAT_ID":60330,"ELEMENT_SET_NO":999,"REV_AT_EPOCH":8839,"BSTAR":9.8759e-5,"MEAN_MOTION_DOT":2.566e-5,"MEAN_MOTION_DDOT":0},{"OBJECT_NAME":"STARLINK-32203","OBJECT_ID":"2024-136C","EPOCH":"2026-03-01T09:08:44.758176","MEAN_MOTION":15.30190195,"ECCENTRICITY":0.00011,"INCLINATION":53.1596,"RA_OF_ASC_NODE":104.2354,"ARG_OF_PERICENTER":82.8804,"MEAN_ANOMALY":277.2321,"EPHEMERIS_TYPE":0,"CLASSIFICATION_TYPE":"U","NORAD_CAT_ID":60331,"ELEMENT_SET_NO":999,"REV_AT_EPOCH":8853,"BSTAR":7.3031e-5,"MEAN_MOTION_DOT":1.804e-5,"MEAN_MOTION_DDOT":0},{"OBJECT_NAME":"STARLINK-32171","OBJECT_ID":"2024-136D","EPOCH":"2026-03-01T10:22:55.268832","MEAN_MOTION":15.30183528,"ECCENTRICITY":0.0001073,"INCLINATION":53.159,"RA_OF_ASC_NODE":113.7962,"ARG_OF_PERICENTER":78.0496,"MEAN_ANOMALY":282.0625,"EPHEMERIS_TYPE":0,"CLASSIFICATION_TYPE":"U","NORAD_CAT_ID":60332,"ELEMENT_SET_NO":999,"REV_AT_EPOCH":8840,"BSTAR":6.8506e-5,"MEAN_MOTION_DOT":1.669e-5,"MEAN_MOTION_DDOT":0},{"OBJECT_NAME":"STARLINK-32133","OBJECT_ID":"2024-136E","EPOCH":"2026-03-01T09:51:10.305216","MEAN_MOTION":15.30186543,"ECCENTRICITY":0.000134,"INCLINATION":53.1604,"RA_OF_ASC_NODE":114.3617,"ARG_OF_PERICENTER":63.3807,"MEAN_ANOMALY":296.7331,"EPHEMERIS_TYPE":0,"CLASSIFICATION_TYPE":"U","NORAD_CAT_ID":60333,"ELEMENT_SET_NO":999,"REV_AT_EPOCH":8839,"BSTAR":-8.6423e-6,"MEAN_MOTION_DOT":-6.15e-6,"MEAN_MOTION_DDOT":0},{"OBJECT_NAME":"STARLINK-32132","OBJECT_ID":"2024-136F","EPOCH":"2026-03-01T09:42:02.942208","MEAN_MOTION":15.30188809,"ECCENTRICITY":0.0001029,"INCLINATION":53.1585,"RA_OF_ASC_NODE":114.3226,"ARG_OF_PERICENTER":90.0205,"MEAN_ANOMALY":270.0913,"EPHEMERIS_TYPE":0,"CLASSIFICATION_TYPE":"U","NORAD_CAT_ID":60334,"ELEMENT_SET_NO":999,"REV_AT_EPOCH":8839,"BSTAR":1.9117e-5,"MEAN_MOTION_DOT":2.07e-6,"MEAN_MOTION_DDOT":0},{"OBJECT_NAME":"STARLINK-32168","OBJECT_ID":"2024-136G","EPOCH":"2026-03-01T11:11:32.768736","MEAN_MOTION":15.30187794,"ECCENTRICITY":0.0001258,"INCLINATION":53.1591,"RA_OF_ASC_NODE":113.9971,"ARG_OF_PERICENTER":89.1675,"MEAN_ANOMALY":270.947,"EPHEMERIS_TYPE":0,"CLASSIFICATION_TYPE":"U","NORAD_CAT_ID":60335,"ELEMENT_SET_NO":999,"REV_AT_EPOCH":8840,"BSTAR":0.00024681,"MEAN_MOTION_DOT":6.955e-5,"MEAN_MOTION_DDOT":0},{"OBJECT_NAME":"STARLINK-32079","OBJECT_ID":"2024-136H","EPOCH":"2026-03-01T11:06:59.166720","MEAN_MOTION":15.3018734,"ECCENTRICITY":0.0001169,"INCLINATION":53.1598,"RA_OF_ASC_NODE":113.977,"ARG_OF_PERICENTER":88.8819,"MEAN_ANOMALY":271.2316,"EPHEMERIS_TYPE":0,"CLASSIFICATION_TYPE":"U","NORAD_CAT_ID":60336,"ELEMENT_SET_NO":999,"REV_AT_EPOCH":8840,"BSTAR":2.4744e-5,"MEAN_MOTION_DOT":3.74e-6,"MEAN_MOTION_DDOT":0},{"OBJECT_NAME":"STARLINK-32078","OBJECT_ID":"2024-136K","EPOCH":"2026-03-01T11:00:54.763488","MEAN_MOTION":15.30182972,"ECCENTRICITY":0.0001242,"INCLINATION":53.1598,"RA_OF_ASC_NODE":113.9493,"ARG_OF_PERICENTER":79.9417,"MEAN_ANOMALY":280.1724,"EPHEMERIS_TYPE":0,"CLASSIFICATION_TYPE":"U","NORAD_CAT_ID":60338,"ELEMENT_SET_NO":999,"REV_AT_EPOCH":8840,"BSTAR":2.28e-5,"MEAN_MOTION_DOT":3.16e-6,"MEAN_MOTION_DDOT":0},{"OBJECT_NAME":"STARLINK-32175","OBJECT_ID":"2024-136L","EPOCH":"2026-03-01T09:23:48.970464","MEAN_MOTION":15.30186442,"ECCENTRICITY":0.0001289,"INCLINATION":53.1602,"RA_OF_ASC_NODE":114.2388,"ARG_OF_PERICENTER":101.1563,"MEAN_ANOMALY":258.9583,"EPHEMERIS_TYPE":0,"CLASSIFICATION_TYPE":"U","NORAD_CAT_ID":60339,"ELEMENT_SET_NO":999,"REV_AT_EPOCH":8839,"BSTAR":3.8139e-5,"MEAN_MOTION_DOT":7.7e-6,"MEAN_MOTION_DDOT":0},{"OBJECT_NAME":"STARLINK-32176","OBJECT_ID":"2024-136M","EPOCH":"2026-03-01T10:53:18.463488","MEAN_MOTION":15.30183839,"ECCENTRICITY":0.0001135,"INCLINATION":53.1589,"RA_OF_ASC_NODE":113.9165,"ARG_OF_PERICENTER":103.1456,"MEAN_ANOMALY":256.9671,"EPHEMERIS_TYPE":0,"CLASSIFICATION_TYPE":"U","NORAD_CAT_ID":60340,"ELEMENT_SET_NO":999,"REV_AT_EPOCH":8957,"BSTAR":4.2448e-5,"MEAN_MOTION_DOT":8.98e-6,"MEAN_MOTION_DDOT":0},{"OBJECT_NAME":"STARLINK-32185","OBJECT_ID":"2024-136N","EPOCH":"2026-03-01T09:08:37.345056","MEAN_MOTION":15.30186774,"ECCENTRICITY":0.0001145,"INCLINATION":53.1596,"RA_OF_ASC_NODE":114.1718,"ARG_OF_PERICENTER":103.7494,"MEAN_ANOMALY":256.3634,"EPHEMERIS_TYPE":0,"CLASSIFICATION_TYPE":"U","NORAD_CAT_ID":60341,"ELEMENT_SET_NO":999,"REV_AT_EPOCH":8839,"BSTAR":5.4954e-5,"MEAN_MOTION_DOT":1.268e-5,"MEAN_MOTION_DDOT":0},{"OBJECT_NAME":"STARLINK-32221","OBJECT_ID":"2024-136P","EPOCH":"2026-03-01T09:13:10.763904","MEAN_MOTION":15.3018791,"ECCENTRICITY":0.000116,"INCLINATION":53.1596,"RA_OF_ASC_NODE":114.1905,"ARG_OF_PERICENTER":110.2103,"MEAN_ANOMALY":249.9022,"EPHEMERIS_TYPE":0,"CLASSIFICATION_TYPE":"U","NORAD_CAT_ID":60342,"ELEMENT_SET_NO":999,"REV_AT_EPOCH":8839,"BSTAR":3.7975e-5,"MEAN_MOTION_DOT":7.65e-6,"MEAN_MOTION_DDOT":0},{"OBJECT_NAME":"STARLINK-32083","OBJECT_ID":"2024-136Q","EPOCH":"2026-03-01T10:48:44.586720","MEAN_MOTION":15.30187151,"ECCENTRICITY":0.0001109,"INCLINATION":53.1596,"RA_OF_ASC_NODE":113.8611,"ARG_OF_PERICENTER":98.2689,"MEAN_ANOMALY":261.8437,"EPHEMERIS_TYPE":0,"CLASSIFICATION_TYPE":"U","NORAD_CAT_ID":60343,"ELEMENT_SET_NO":999,"REV_AT_EPOCH":8840,"BSTAR":4.411e-5,"MEAN_MOTION_DOT":9.47e-6,"MEAN_MOTION_DDOT":0},{"OBJECT_NAME":"STARLINK-32077","OBJECT_ID":"2024-136R","EPOCH":"2026-03-01T09:04:03.585792","MEAN_MOTION":15.30184386,"ECCENTRICITY":0.0001282,"INCLINATION":53.16,"RA_OF_ASC_NODE":114.1529,"ARG_OF_PERICENTER":92.8814,"MEAN_ANOMALY":267.2333,"EPHEMERIS_TYPE":0,"CLASSIFICATION_TYPE":"U","NORAD_CAT_ID":60344,"ELEMENT_SET_NO":999,"REV_AT_EPOCH":8839,"BSTAR":0.00011973,"MEAN_MOTION_DOT":3.187e-5,"MEAN_MOTION_DDOT":0},{"OBJECT_NAME":"STARLINK-32075","OBJECT_ID":"2024-136S","EPOCH":"2026-03-01T10:32:02.235264","MEAN_MOTION":15.3018879,"ECCENTRICITY":9.63e-5,"INCLINATION":53.1586,"RA_OF_ASC_NODE":113.8197,"ARG_OF_PERICENTER":77.916,"MEAN_ANOMALY":282.1949,"EPHEMERIS_TYPE":0,"CLASSIFICATION_TYPE":"U","NORAD_CAT_ID":60345,"ELEMENT_SET_NO":999,"REV_AT_EPOCH":8840,"BSTAR":2.1226e-6,"MEAN_MOTION_DOT":-2.96e-6,"MEAN_MOTION_DDOT":0},{"OBJECT_NAME":"STARLINK-32082","OBJECT_ID":"2024-136T","EPOCH":"2026-03-01T10:33:33.164352","MEAN_MOTION":15.30190936,"ECCENTRICITY":0.0001035,"INCLINATION":53.1592,"RA_OF_ASC_NODE":113.8279,"ARG_OF_PERICENTER":82.3482,"MEAN_ANOMALY":277.7636,"EPHEMERIS_TYPE":0,"CLASSIFICATION_TYPE":"U","NORAD_CAT_ID":60346,"ELEMENT_SET_NO":999,"REV_AT_EPOCH":8840,"BSTAR":7.1458e-5,"MEAN_MOTION_DOT":1.757e-5,"MEAN_MOTION_DDOT":0}]
