STARLINK-31745          
1 60329U 24136A   26060.41791988  .00004308  00000+0  15750-3 0  9992
2 60329  53.1600 114.4079 0001229  76.7314 283.3824 15.30198835 89601
STARLINK-32153          
1 60330U 24136B   26060.41686271  .00002566  00000+0  98759-4 0  9997
2 60330  53.1600 114.4044 0001190  66.0592 294.0533 15.30192097 88397
STARLINK-32203          
1 60331U 24136C   26060.38107359  .00001804  00000+0  73031-4 0  9999
2 60331  53.1596 104.2354 0001100  82.8804 277.2321 15.30190195 88537
STARLINK-32171          
1 60332U 24136D   26060.43258413  .00001669  00000+0  68506-4 0  9994
2 60332  53.1590 113.7962 0001073  78.0496 282.0625 15.30183528 88404
STARLINK-32133          
1 60333U 24136E   26060.41053594 -.00000615  00000+0 -86423-5 0  9997
2 60333  53.1604 114.3617 0001340  63.3807 296.7331 15.30186543 88399
STARLINK-32132          
1 60334U 24136F   26060.40420072  .00000207  00000+0  19117-4 0  9996
2 60334  53.1585 114.3226 0001029  90.0205 270.0913 15.30188809 88395
STARLINK-32168          
1 60335U 24136G   26060.46635149  .00006955  00000+0  24681-3 0  9993
2 60335  53.1591 113.9971 0001258  89.1675 270.9470 15.30187794 88400
STARLINK-32079          
1 60336U 24136H   26060.46318480  .00000374  00000+0  24744-4 0  9990
2 60336  53.1598 113.9770 0001169  88.8819 271.2316 15.30187340 88402
STARLINK-32078          
1 60338U 24136K   26060.45896717  .00000316  00000+0  22800-4 0  9992
2 60338  53.1598 113.9493 0001242  79.9417 280.1724 15.30182972 88401
STARLINK-32175          
1 60339U 24136L   26060.39153901  .00000770  00000+0  38139-4 0  9993
2 60339  53.1602 114.2388 0001289 101.1563 258.9583 15.30186442 88396
STARLINK-32176          
1 60340U 24136M   26060.45368592  .00000898  00000+0  42448-4 0  9995
2 60340  53.1589 113.9165 0001135 103.1456 256.9671 15.30183839 89578
STARLINK-32185          
1 60341U 24136N   26060.38098779  .00001268  00000+0  54954-4 0  9992
2 60341  53.1596 114.1718 0001145 103.7494 256.3634 15.30186774 88396
STARLINK-32221          
1 60342U 24136P   26060.38415236  .00000765  00000+0  37975-4 0  9999
2 60342  53.1596 114.1905 0001160 110.2103 249.9022 15.30187910 88394
STARLINK-32083          
1 60343U 24136Q   26060.45051605  .00000947  00000+0  44110-4 0  9995
2 60343  53.1596 113.8611 0001109  98.2689 261.8437 15.30187151 88404
STARLINK-32077          
1 60344U 24136R   26060.37781928  .00003187  00000+0  11973-3 0  9994
2 60344  53.1600 114.1529 0001282  92.8814 267.2333 15.30184386 88395
STARLINK-32075          
1 60345U 24136S   26060.43891476 -.00000296  00000+0  21226-5 0  9995
2 60345  53.1586 113.8197 0000963  77.9160 282.1949 15.30188790 88403
STARLINK-32082          
1 60346U 24136T   26060.43996718  .00001757  00000+0  71458-4 0  9994
2 60346  53.1592 113.8279 0001035  82.3482 277.7636 15.30190936 88408
